STARLINK-3898           
1 52458U 22049H   25234.44066610  .00000184  00000+0  29649-4 0  9990
2 52458  53.2164 243.5850 0001061  68.3701 291.7404 15.08839360182031
STARLINK-3856           
1 52459U 22049J   25234.29342878 -.00000125  00000+0  10226-4 0  9994
2 52459  53.2163 234.2452 0001346  85.0117 275.1029 15.08838111182143
STARLINK-3900           
1 52461U 22049L   25234.35693176 -.00000504  00000+0 -13618-4 0  9994
2 52461  53.2159 223.9610 0001206  97.3999 262.7130 15.08827948182298
STARLINK-3903           
1 52462U 22049M   25234.28702718 -.00000258  00000+0  18500-5 0  9991
2 52462  53.2166 234.2859 0001233  82.3662 277.7470 15.08838796182148
STARLINK-3885           
1 52463U 22049N   25234.28699506  .00000109  00000+0  24947-4 0  9997
2 52463  53.2167 224.2762 0001348  87.2113 272.9033 15.08835151182283
STARLINK-3904           
1 52464U 22049P   25234.42223082 -.00000241  00000+0  29431-5 0  9998
2 52464  53.2163 233.6669 0001275  77.9779 282.1356 15.08836529182161
STARLINK-3863           
1 52465U 22049Q   25234.28331256  .00000001  00000+0  18139-4 0  9991
2 52465  53.2170 224.2914 0001386  88.5650 271.5501 15.08835358182284
STARLINK-3873           
1 52467U 22049S   25234.28239046 -.00000976  00000+0 -43223-4 0  9992
2 52467  53.2159 234.2954 0001579  72.2469 287.8695 15.08841085182143
STARLINK-3864           
1 52468U 22049T   25232.74414839  .00000467  00000+0  47413-4 0  9995
2 52468  53.2162 241.2015 0000557  55.1487 304.9558 15.08837703181914
STARLINK-3828           
1 52469U 22049U   25232.75150813  .00000284  00000+0  35951-4 0  9997
2 52469  53.2154 241.1760 0001312  66.3953 293.7177 15.08841027181910
STARLINK-3859           
1 52470U 22049V   25232.73679197 -.00000360  00000+0 -45610-5 0  9999
2 52470  53.2162 241.2354 0000890  58.7416 301.3663 15.08834095181913
STARLINK-3862           
1 52471U 22049W   25232.74878722  .00000384  00000+0  42199-4 0  9998
2 52471  53.2160 241.1911 0001273  85.3240 274.7897 15.08838479181919
STARLINK-3881           
1 52472U 22049X   25232.73311978  .00000958  00000+0  78264-4 0  9992
2 52472  53.2165 241.2528 0001301  87.0623 273.0518 15.08840813181913
STARLINK-3879           
1 52473U 22049Y   25232.74047070 -.00000219  00000+0  43243-5 0  9994
2 52473  53.2162 241.2203 0001214  84.9724 275.1407 15.08836343181915
STARLINK-3855           
1 52474U 22049Z   25234.27691276 -.00000099  00000+0  11846-4 0  9997
2 52474  53.2172 224.3299 0001305  84.5817 275.5324 15.08833579182285
STARLINK-3882           
1 52475U 22049AA  25232.75521671  .00000738  00000+0  64435-4 0  9991
2 52475  53.2162 241.3720 0001253  84.7043 275.4092 15.08840602181913
STARLINK-3835           
1 52476U 22049AB  25234.36157647  .00000289  00000+0  36230-4 0  9992
2 52476  53.2166 224.1818 0001454  80.8529 279.2627 15.08839750183532
