[{"OBJECT_NAME":"STARLINK-3898","OBJECT_ID":"2022-049H","EPOCH":"2025-08-22T10:34:33.551040","MEAN_MOTION":15.0883936,"ECCENTRICITY":0.00010616,"INCLINATION":53.2164,"RA_OF_ASC_NODE":243.585,"ARG_OF_PERICENTER":68.3701,"MEAN_ANOMALY":291.7404,"EPHEMERIS_TYPE":0,"CLASSIFICATION_TYPE":"U","NORAD_CAT_ID":52458,"ELEMENT_SET_NO":999,"REV_AT_EPOCH":18203,"BSTAR":2.9648526e-5,"MEAN_MOTION_DOT":1.84e-6,"MEAN_MOTION_DDOT":0},{"OBJECT_NAME":"STARLINK-3856","OBJECT_ID":"2022-049J","EPOCH":"2025-08-22T07:02:32.246592","MEAN_MOTION":15.08838111,"ECCENTRICITY":0.00013468,"INCLINATION":53.2163,"RA_OF_ASC_NODE":234.2452,"ARG_OF_PERICENTER":85.0117,"MEAN_ANOMALY":275.1029,"EPHEMERIS_TYPE":0,"CLASSIFICATION_TYPE":"U","NORAD_CAT_ID":52459,"ELEMENT_SET_NO":999,"REV_AT_EPOCH":18214,"BSTAR":1.0226148e-5,"MEAN_MOTION_DOT":-1.25e-6,"MEAN_MOTION_DDOT":0},{"OBJECT_NAME":"STARLINK-3900","OBJECT_ID":"2022-049L","EPOCH":"2025-08-22T08:33:58.904064","MEAN_MOTION":15.08827948,"ECCENTRICITY":0.0001206,"INCLINATION":53.2159,"RA_OF_ASC_NODE":223.961,"ARG_OF_PERICENTER":97.3999,"MEAN_ANOMALY":262.713,"EPHEMERIS_TYPE":0,"CLASSIFICATION_TYPE":"U","NORAD_CAT_ID":52461,"ELEMENT_SET_NO":999,"REV_AT_EPOCH":18229,"BSTAR":-1.3618085e-5,"MEAN_MOTION_DOT":-5.04e-6,"MEAN_MOTION_DDOT":0},{"OBJECT_NAME":"STARLINK-3903","OBJECT_ID":"2022-049M","EPOCH":"2025-08-22T06:53:19.148352","MEAN_MOTION":15.08838796,"ECCENTRICITY":0.00012336,"INCLINATION":53.2166,"RA_OF_ASC_NODE":234.2859,"ARG_OF_PERICENTER":82.3662,"MEAN_ANOMALY":277.747,"EPHEMERIS_TYPE":0,"CLASSIFICATION_TYPE":"U","NORAD_CAT_ID":52462,"ELEMENT_SET_NO":999,"REV_AT_EPOCH":18214,"BSTAR":1.850038e-6,"MEAN_MOTION_DOT":-2.58e-6,"MEAN_MOTION_DDOT":0},{"OBJECT_NAME":"STARLINK-3885","OBJECT_ID":"2022-049N","EPOCH":"2025-08-22T06:53:16.373184","MEAN_MOTION":15.08835151,"ECCENTRICITY":0.00013486,"INCLINATION":53.2167,"RA_OF_ASC_NODE":224.2762,"ARG_OF_PERICENTER":87.2113,"MEAN_ANOMALY":272.9033,"EPHEMERIS_TYPE":0,"CLASSIFICATION_TYPE":"U","NORAD_CAT_ID":52463,"ELEMENT_SET_NO":999,"REV_AT_EPOCH":18228,"BSTAR":2.4947361e-5,"MEAN_MOTION_DOT":1.09e-6,"MEAN_MOTION_DDOT":0},{"OBJECT_NAME":"STARLINK-3904","OBJECT_ID":"2022-049P","EPOCH":"2025-08-22T10:08:00.742848","MEAN_MOTION":15.08836529,"ECCENTRICITY":0.0001275,"INCLINATION":53.2163,"RA_OF_ASC_NODE":233.6669,"ARG_OF_PERICENTER":77.9779,"MEAN_ANOMALY":282.1356,"EPHEMERIS_TYPE":0,"CLASSIFICATION_TYPE":"U","NORAD_CAT_ID":52464,"ELEMENT_SET_NO":999,"REV_AT_EPOCH":18216,"BSTAR":2.943144e-6,"MEAN_MOTION_DOT":-2.41e-6,"MEAN_MOTION_DDOT":0},{"OBJECT_NAME":"STARLINK-3863","OBJECT_ID":"2022-049Q","EPOCH":"2025-08-22T06:47:58.205184","MEAN_MOTION":15.08835358,"ECCENTRICITY":0.00013867,"INCLINATION":53.217,"RA_OF_ASC_NODE":224.2914,"ARG_OF_PERICENTER":88.565,"MEAN_ANOMALY":271.5501,"EPHEMERIS_TYPE":0,"CLASSIFICATION_TYPE":"U","NORAD_CAT_ID":52465,"ELEMENT_SET_NO":999,"REV_AT_EPOCH":18228,"BSTAR":1.8139444e-5,"MEAN_MOTION_DOT":1.0e-8,"MEAN_MOTION_DDOT":0},{"OBJECT_NAME":"STARLINK-3873","OBJECT_ID":"2022-049S","EPOCH":"2025-08-22T06:46:38.535744","MEAN_MOTION":15.08841085,"ECCENTRICITY":0.00015796,"INCLINATION":53.2159,"RA_OF_ASC_NODE":234.2954,"ARG_OF_PERICENTER":72.2469,"MEAN_ANOMALY":287.8695,"EPHEMERIS_TYPE":0,"CLASSIFICATION_TYPE":"U","NORAD_CAT_ID":52467,"ELEMENT_SET_NO":999,"REV_AT_EPOCH":18214,"BSTAR":-4.3222901e-5,"MEAN_MOTION_DOT":-9.76e-6,"MEAN_MOTION_DDOT":0},{"OBJECT_NAME":"STARLINK-3864","OBJECT_ID":"2022-049T","EPOCH":"2025-08-20T17:51:34.420896","MEAN_MOTION":15.08837703,"ECCENTRICITY":5.57e-5,"INCLINATION":53.2162,"RA_OF_ASC_NODE":241.2015,"ARG_OF_PERICENTER":55.1487,"MEAN_ANOMALY":304.9558,"EPHEMERIS_TYPE":0,"CLASSIFICATION_TYPE":"U","NORAD_CAT_ID":52468,"ELEMENT_SET_NO":999,"REV_AT_EPOCH":18191,"BSTAR":4.7413e-5,"MEAN_MOTION_DOT":4.67e-6,"MEAN_MOTION_DDOT":0},{"OBJECT_NAME":"STARLINK-3828","OBJECT_ID":"2022-049U","EPOCH":"2025-08-20T18:02:10.302432","MEAN_MOTION":15.08841027,"ECCENTRICITY":0.0001312,"INCLINATION":53.2154,"RA_OF_ASC_NODE":241.176,"ARG_OF_PERICENTER":66.3953,"MEAN_ANOMALY":293.7177,"EPHEMERIS_TYPE":0,"CLASSIFICATION_TYPE":"U","NORAD_CAT_ID":52469,"ELEMENT_SET_NO":999,"REV_AT_EPOCH":18191,"BSTAR":3.5951e-5,"MEAN_MOTION_DOT":2.84e-6,"MEAN_MOTION_DDOT":0},{"OBJECT_NAME":"STARLINK-3859","OBJECT_ID":"2022-049V","EPOCH":"2025-08-20T17:40:58.826208","MEAN_MOTION":15.08834095,"ECCENTRICITY":8.9e-5,"INCLINATION":53.2162,"RA_OF_ASC_NODE":241.2354,"ARG_OF_PERICENTER":58.7416,"MEAN_ANOMALY":301.3663,"EPHEMERIS_TYPE":0,"CLASSIFICATION_TYPE":"U","NORAD_CAT_ID":52470,"ELEMENT_SET_NO":999,"REV_AT_EPOCH":18191,"BSTAR":-4.561e-6,"MEAN_MOTION_DOT":-3.6e-6,"MEAN_MOTION_DDOT":0},{"OBJECT_NAME":"STARLINK-3862","OBJECT_ID":"2022-049W","EPOCH":"2025-08-20T17:58:15.215808","MEAN_MOTION":15.08838479,"ECCENTRICITY":0.0001273,"INCLINATION":53.216,"RA_OF_ASC_NODE":241.1911,"ARG_OF_PERICENTER":85.324,"MEAN_ANOMALY":274.7897,"EPHEMERIS_TYPE":0,"CLASSIFICATION_TYPE":"U","NORAD_CAT_ID":52471,"ELEMENT_SET_NO":999,"REV_AT_EPOCH":18191,"BSTAR":4.2199e-5,"MEAN_MOTION_DOT":3.84e-6,"MEAN_MOTION_DDOT":0},{"OBJECT_NAME":"STARLINK-3881","OBJECT_ID":"2022-049X","EPOCH":"2025-08-20T17:35:41.548992","MEAN_MOTION":15.08840813,"ECCENTRICITY":0.0001301,"INCLINATION":53.2165,"RA_OF_ASC_NODE":241.2528,"ARG_OF_PERICENTER":87.0623,"MEAN_ANOMALY":273.0518,"EPHEMERIS_TYPE":0,"CLASSIFICATION_TYPE":"U","NORAD_CAT_ID":52472,"ELEMENT_SET_NO":999,"REV_AT_EPOCH":18191,"BSTAR":7.8264e-5,"MEAN_MOTION_DOT":9.58e-6,"MEAN_MOTION_DDOT":0},{"OBJECT_NAME":"STARLINK-3879","OBJECT_ID":"2022-049Y","EPOCH":"2025-08-20T17:46:16.668480","MEAN_MOTION":15.08836343,"ECCENTRICITY":0.0001214,"INCLINATION":53.2162,"RA_OF_ASC_NODE":241.2203,"ARG_OF_PERICENTER":84.9724,"MEAN_ANOMALY":275.1407,"EPHEMERIS_TYPE":0,"CLASSIFICATION_TYPE":"U","NORAD_CAT_ID":52473,"ELEMENT_SET_NO":999,"REV_AT_EPOCH":18191,"BSTAR":4.3243e-6,"MEAN_MOTION_DOT":-2.19e-6,"MEAN_MOTION_DDOT":0},{"OBJECT_NAME":"STARLINK-3855","OBJECT_ID":"2022-049Z","EPOCH":"2025-08-22T06:38:45.262464","MEAN_MOTION":15.08833579,"ECCENTRICITY":0.00013056,"INCLINATION":53.2172,"RA_OF_ASC_NODE":224.3299,"ARG_OF_PERICENTER":84.5817,"MEAN_ANOMALY":275.5324,"EPHEMERIS_TYPE":0,"CLASSIFICATION_TYPE":"U","NORAD_CAT_ID":52474,"ELEMENT_SET_NO":999,"REV_AT_EPOCH":18228,"BSTAR":1.1845998e-5,"MEAN_MOTION_DOT":-9.9e-7,"MEAN_MOTION_DDOT":0},{"OBJECT_NAME":"STARLINK-3882","OBJECT_ID":"2022-049AA","EPOCH":"2025-08-20T18:07:30.723744","MEAN_MOTION":15.08840602,"ECCENTRICITY":0.0001253,"INCLINATION":53.2162,"RA_OF_ASC_NODE":241.372,"ARG_OF_PERICENTER":84.7043,"MEAN_ANOMALY":275.4092,"EPHEMERIS_TYPE":0,"CLASSIFICATION_TYPE":"U","NORAD_CAT_ID":52475,"ELEMENT_SET_NO":999,"REV_AT_EPOCH":18191,"BSTAR":6.4435e-5,"MEAN_MOTION_DOT":7.38e-6,"MEAN_MOTION_DDOT":0},{"OBJECT_NAME":"STARLINK-3835","OBJECT_ID":"2022-049AB","EPOCH":"2025-08-22T08:40:40.207008","MEAN_MOTION":15.0883975,"ECCENTRICITY":0.00014542,"INCLINATION":53.2166,"RA_OF_ASC_NODE":224.1818,"ARG_OF_PERICENTER":80.8529,"MEAN_ANOMALY":279.2627,"EPHEMERIS_TYPE":0,"CLASSIFICATION_TYPE":"U","NORAD_CAT_ID":52476,"ELEMENT_SET_NO":999,"REV_AT_EPOCH":18353,"BSTAR":3.623045e-5,"MEAN_MOTION_DOT":2.89e-6,"MEAN_MOTION_DDOT":0}]
